[{"OBJECT_NAME":"COSMOS 2251 DEB","OBJECT_ID":"1993-036AGU","EPOCH":"2026-02-28T19:38:15.802944","MEAN_MOTION":14.38393141,"ECCENTRICITY":0.00192661,"INCLINATION":74.0369,"RA_OF_ASC_NODE":115.4074,"ARG_OF_PERICENTER":198.1978,"MEAN_ANOMALY":161.8489,"EPHEMERIS_TYPE":0,"CLASSIFICATION_TYPE":"U","NORAD_CAT_ID":35031,"ELEMENT_SET_NO":999,"REV_AT_EPOCH":66406,"BSTAR":0.0001476424,"MEAN_MOTION_DOT":4.25e-6,"MEAN_MOTION_DDOT":0},{"OBJECT_NAME":"COSMOS 2251 DEB","OBJECT_ID":"1993-036AGV","EPOCH":"2026-03-03T02:46:20.153856","MEAN_MOTION":14.59451201,"ECCENTRICITY":0.00661627,"INCLINATION":73.8496,"RA_OF_ASC_NODE":212.3789,"ARG_OF_PERICENTER":44.6685,"MEAN_ANOMALY":72.3516,"EPHEMERIS_TYPE":0,"CLASSIFICATION_TYPE":"U","NORAD_CAT_ID":35032,"ELEMENT_SET_NO":999,"REV_AT_EPOCH":88846,"BSTAR":0.00098013078,"MEAN_MOTION_DOT":4.763e-5,"MEAN_MOTION_DDOT":0},{"OBJECT_NAME":"COSMOS 2251 DEB","OBJECT_ID":"1993-036AGW","EPOCH":"2026-02-02T08:51:47.420640","MEAN_MOTION":14.51289638,"ECCENTRICITY":0.00133416,"INCLINATION":74.0255,"RA_OF_ASC_NODE":79.4,"ARG_OF_PERICENTER":184.2832,"MEAN_ANOMALY":175.8217,"EPHEMERIS_TYPE":0,"CLASSIFICATION_TYPE":"U","NORAD_CAT_ID":35033,"ELEMENT_SET_NO":999,"REV_AT_EPOCH":66676,"BSTAR":0.00052978373,"MEAN_MOTION_DOT":2.083e-5,"MEAN_MOTION_DDOT":0},{"OBJECT_NAME":"COSMOS 2251 DEB","OBJECT_ID":"1993-036AHB","EPOCH":"2026-03-03T12:27:07.983360","MEAN_MOTION":14.25865554,"ECCENTRICITY":0.01124814,"INCLINATION":74.1057,"RA_OF_ASC_NODE":257.3843,"ARG_OF_PERICENTER":221.4253,"MEAN_ANOMALY":167.8739,"EPHEMERIS_TYPE":0,"CLASSIFICATION_TYPE":"U","NORAD_CAT_ID":35038,"ELEMENT_SET_NO":999,"REV_AT_EPOCH":86720,"BSTAR":0.0015730808,"MEAN_MOTION_DOT":3.978e-5,"MEAN_MOTION_DDOT":0},{"OBJECT_NAME":"COSMOS 2251 DEB","OBJECT_ID":"1993-036AHG","EPOCH":"2026-03-01T19:58:31.050048","MEAN_MOTION":14.81417781,"ECCENTRICITY":0.00886135,"INCLINATION":73.9472,"RA_OF_ASC_NODE":249.1383,"ARG_OF_PERICENTER":77.3723,"MEAN_ANOMALY":283.7344,"EPHEMERIS_TYPE":0,"CLASSIFICATION_TYPE":"U","NORAD_CAT_ID":35043,"ELEMENT_SET_NO":999,"REV_AT_EPOCH":68588,"BSTAR":0.0040334414,"MEAN_MOTION_DOT":0.00033909,"MEAN_MOTION_DDOT":0},{"OBJECT_NAME":"COSMOS 2251 DEB","OBJECT_ID":"1993-036AHJ","EPOCH":"2026-02-27T00:31:58.805760","MEAN_MOTION":14.00562845,"ECCENTRICITY":0.01816119,"INCLINATION":73.7162,"RA_OF_ASC_NODE":277.9565,"ARG_OF_PERICENTER":148.8646,"MEAN_ANOMALY":212.3402,"EPHEMERIS_TYPE":0,"CLASSIFICATION_TYPE":"U","NORAD_CAT_ID":35045,"ELEMENT_SET_NO":999,"REV_AT_EPOCH":85711,"BSTAR":0.00052863242,"MEAN_MOTION_DOT":8.81e-6,"MEAN_MOTION_DDOT":0},{"OBJECT_NAME":"COSMOS 2251 DEB","OBJECT_ID":"1993-036AHP","EPOCH":"2026-03-03T10:51:57.615552","MEAN_MOTION":14.41808369,"ECCENTRICITY":0.00176414,"INCLINATION":74.0349,"RA_OF_ASC_NODE":94.7955,"ARG_OF_PERICENTER":170.5426,"MEAN_ANOMALY":189.6066,"EPHEMERIS_TYPE":0,"CLASSIFICATION_TYPE":"U","NORAD_CAT_ID":35060,"ELEMENT_SET_NO":999,"REV_AT_EPOCH":88405,"BSTAR":0.00033844099,"MEAN_MOTION_DOT":1.082e-5,"MEAN_MOTION_DDOT":0},{"OBJECT_NAME":"COSMOS 2251 DEB","OBJECT_ID":"1993-036AHQ","EPOCH":"2026-03-03T15:40:29.873856","MEAN_MOTION":14.68603355,"ECCENTRICITY":0.0041794,"INCLINATION":74.0461,"RA_OF_ASC_NODE":149.3755,"ARG_OF_PERICENTER":243.1729,"MEAN_ANOMALY":116.5165,"EPHEMERIS_TYPE":0,"CLASSIFICATION_TYPE":"U","NORAD_CAT_ID":35061,"ELEMENT_SET_NO":999,"REV_AT_EPOCH":89762,"BSTAR":0.00087784,"MEAN_MOTION_DOT":5.139e-5,"MEAN_MOTION_DDOT":0},{"OBJECT_NAME":"COSMOS 2251 DEB","OBJECT_ID":"1993-036AHR","EPOCH":"2026-03-01T16:36:11.474208","MEAN_MOTION":14.23872554,"ECCENTRICITY":0.01265691,"INCLINATION":74.0829,"RA_OF_ASC_NODE":311.5867,"ARG_OF_PERICENTER":290.6485,"MEAN_ANOMALY":68.1127,"EPHEMERIS_TYPE":0,"CLASSIFICATION_TYPE":"U","NORAD_CAT_ID":35062,"ELEMENT_SET_NO":999,"REV_AT_EPOCH":86622,"BSTAR":0.0015051081,"MEAN_MOTION_DOT":3.72e-5,"MEAN_MOTION_DDOT":0},{"OBJECT_NAME":"COSMOS 2251 DEB","OBJECT_ID":"1993-036AHU","EPOCH":"2026-03-03T06:59:20.904288","MEAN_MOTION":14.46028081,"ECCENTRICITY":0.0018858,"INCLINATION":74.0196,"RA_OF_ASC_NODE":43.9265,"ARG_OF_PERICENTER":158.0576,"MEAN_ANOMALY":202.1394,"EPHEMERIS_TYPE":0,"CLASSIFICATION_TYPE":"U","NORAD_CAT_ID":35065,"ELEMENT_SET_NO":999,"REV_AT_EPOCH":69515,"BSTAR":0.00053122721,"MEAN_MOTION_DOT":1.871e-5,"MEAN_MOTION_DDOT":0},{"OBJECT_NAME":"COSMOS 2251 DEB","OBJECT_ID":"1993-036AJA","EPOCH":"2026-02-11T08:52:27.880032","MEAN_MOTION":15.05018922,"ECCENTRICITY":0.00700444,"INCLINATION":73.9325,"RA_OF_ASC_NODE":48.614,"ARG_OF_PERICENTER":290.1885,"MEAN_ANOMALY":69.178,"EPHEMERIS_TYPE":0,"CLASSIFICATION_TYPE":"U","NORAD_CAT_ID":35071,"ELEMENT_SET_NO":999,"REV_AT_EPOCH":68448,"BSTAR":0.0010407924,"MEAN_MOTION_DOT":0.00015602,"MEAN_MOTION_DDOT":0},{"OBJECT_NAME":"COSMOS 2251 DEB","OBJECT_ID":"1993-036AJC","EPOCH":"2026-02-17T02:05:32.262144","MEAN_MOTION":15.07343553,"ECCENTRICITY":0.00156257,"INCLINATION":73.9975,"RA_OF_ASC_NODE":194.6296,"ARG_OF_PERICENTER":301.2452,"MEAN_ANOMALY":58.7207,"EPHEMERIS_TYPE":0,"CLASSIFICATION_TYPE":"U","NORAD_CAT_ID":35073,"ELEMENT_SET_NO":999,"REV_AT_EPOCH":68476,"BSTAR":0.004407525,"MEAN_MOTION_DOT":0.00067409,"MEAN_MOTION_DDOT":0},{"OBJECT_NAME":"COSMOS 2251 DEB","OBJECT_ID":"1993-036AJN","EPOCH":"2026-02-28T03:50:49.411104","MEAN_MOTION":14.38415191,"ECCENTRICITY":0.00166089,"INCLINATION":74.0482,"RA_OF_ASC_NODE":121.869,"ARG_OF_PERICENTER":188.8665,"MEAN_ANOMALY":201.8079,"EPHEMERIS_TYPE":0,"CLASSIFICATION_TYPE":"U","NORAD_CAT_ID":35284,"ELEMENT_SET_NO":999,"REV_AT_EPOCH":66639,"BSTAR":0.00014635176,"MEAN_MOTION_DOT":4.21e-6,"MEAN_MOTION_DDOT":0},{"OBJECT_NAME":"COSMOS 2251 DEB","OBJECT_ID":"1993-036AJR","EPOCH":"2026-03-03T14:21:49.013280","MEAN_MOTION":14.36453474,"ECCENTRICITY":0.001866,"INCLINATION":74.0296,"RA_OF_ASC_NODE":127.5502,"ARG_OF_PERICENTER":212.6748,"MEAN_ANOMALY":302.5155,"EPHEMERIS_TYPE":0,"CLASSIFICATION_TYPE":"U","NORAD_CAT_ID":35287,"ELEMENT_SET_NO":999,"REV_AT_EPOCH":88053,"BSTAR":0.00014851,"MEAN_MOTION_DOT":4.1e-6,"MEAN_MOTION_DDOT":0},{"OBJECT_NAME":"COSMOS 2251 DEB","OBJECT_ID":"1993-036AJS","EPOCH":"2026-02-28T03:16:19.659360","MEAN_MOTION":14.6652022,"ECCENTRICITY":0.00363379,"INCLINATION":73.9461,"RA_OF_ASC_NODE":225.2804,"ARG_OF_PERICENTER":76.9202,"MEAN_ANOMALY":283.6018,"EPHEMERIS_TYPE":0,"CLASSIFICATION_TYPE":"U","NORAD_CAT_ID":35288,"ELEMENT_SET_NO":999,"REV_AT_EPOCH":89012,"BSTAR":0.0013312922,"MEAN_MOTION_DOT":7.43e-5,"MEAN_MOTION_DDOT":0},{"OBJECT_NAME":"COSMOS 2251 DEB","OBJECT_ID":"1993-036AJU","EPOCH":"2026-03-01T13:16:36.222528","MEAN_MOTION":14.83228059,"ECCENTRICITY":0.00034827,"INCLINATION":74.0015,"RA_OF_ASC_NODE":263.445,"ARG_OF_PERICENTER":357.1189,"MEAN_ANOMALY":2.9969,"EPHEMERIS_TYPE":0,"CLASSIFICATION_TYPE":"U","NORAD_CAT_ID":35290,"ELEMENT_SET_NO":999,"REV_AT_EPOCH":89125,"BSTAR":0.0020176666,"MEAN_MOTION_DOT":0.00016498,"MEAN_MOTION_DDOT":0}]
